[{"OBJECT_NAME":"STARLINK-3100","OBJECT_ID":"2021-082Q","EPOCH":"2026-03-09T23:14:37.250016","MEAN_MOTION":14.98327643,"ECCENTRICITY":0.00027488,"INCLINATION":69.9982,"RA_OF_ASC_NODE":293.7423,"ARG_OF_PERICENTER":269.0008,"MEAN_ANOMALY":91.0837,"EPHEMERIS_TYPE":0,"CLASSIFICATION_TYPE":"U","NORAD_CAT_ID":49144,"ELEMENT_SET_NO":999,"REV_AT_EPOCH":24602,"BSTAR":-3.0178412e-5,"MEAN_MOTION_DOT":-4.53e-6,"MEAN_MOTION_DDOT":0},{"OBJECT_NAME":"CZ-6A DEB","OBJECT_ID":"2022-151VS","EPOCH":"2026-03-09T04:51:15.060960","MEAN_MOTION":14.9137966,"ECCENTRICITY":0.00559122,"INCLINATION":98.6335,"RA_OF_ASC_NODE":146.9052,"ARG_OF_PERICENTER":180.6585,"MEAN_ANOMALY":179.4567,"EPHEMERIS_TYPE":0,"CLASSIFICATION_TYPE":"U","NORAD_CAT_ID":55201,"ELEMENT_SET_NO":999,"REV_AT_EPOCH":17149,"BSTAR":0.0042126159,"MEAN_MOTION_DOT":0.00043496,"MEAN_MOTION_DDOT":0}]
